[{"OBJECT_NAME":"YAOGAN-29","OBJECT_ID":"2015-069A","EPOCH":"2026-03-09T23:55:31.753056","MEAN_MOTION":14.82995409,"ECCENTRICITY":0.00019113,"INCLINATION":98.0143,"RA_OF_ASC_NODE":97.4271,"ARG_OF_PERICENTER":36.221,"MEAN_ANOMALY":323.9132,"EPHEMERIS_TYPE":0,"CLASSIFICATION_TYPE":"U","NORAD_CAT_ID":41038,"ELEMENT_SET_NO":999,"REV_AT_EPOCH":55592,"BSTAR":3.1956053e-5,"MEAN_MOTION_DOT":2.05e-6,"MEAN_MOTION_DDOT":0},{"OBJECT_NAME":"METEOR 2-6 DEB","OBJECT_ID":"1980-073E","EPOCH":"2026-02-17T15:24:23.427648","MEAN_MOTION":14.83756645,"ECCENTRICITY":0.00120075,"INCLINATION":81.1945,"RA_OF_ASC_NODE":22.6487,"ARG_OF_PERICENTER":25.7138,"MEAN_ANOMALY":334.4667,"EPHEMERIS_TYPE":0,"CLASSIFICATION_TYPE":"U","NORAD_CAT_ID":29199,"ELEMENT_SET_NO":999,"REV_AT_EPOCH":2875,"BSTAR":0.0043144461,"MEAN_MOTION_DOT":0.00035916,"MEAN_MOTION_DDOT":0}]
